H1 CPF  1  DLR 2021 02 26 10  5572 technosat            
H2  1704205 6203    42829 2021 02 26 00 00 00 2021 03 05 00 00 00    60 1 1  0 0 0
H9
10 0 59277  28800.000000  0      -3660003.645      -1822752.808       5628170.477
10 0 59277  28860.000000  0      -4026249.038      -1870970.228       5356184.207
10 0 59277  28920.000000  0      -4375838.446      -1908141.947       5061379.184
10 0 59277  28980.000000  0      -4707192.431      -1934261.602       4745006.584
10 0 59277  29040.000000  0      -5018808.824      -1949383.249       4408410.521
10 0 59277  29100.000000  0      -5309269.821      -1953620.482       4053022.359
10 0 59277  29160.000000  0      -5577248.747      -1947145.227       3680354.618
10 0 59277  29220.000000  0      -5821516.413      -1930186.238       3291994.497
10 0 59277  29280.000000  0      -6040947.069      -1903027.298       2889597.066
10 0 59277  29340.000000  0      -6234523.948      -1866005.154       2474878.128
10 0 59277  29400.000000  0      -6401344.379      -1819507.156       2049606.681
10 0 59277  29460.000000  0      -6540624.258      -1763968.575       1615596.991
10 0 59277  29520.000000  0      -6651701.825      -1699869.668       1174700.527
10 0 59277  29580.000000  0      -6734040.927      -1627732.519        728797.789
10 0 59277  29640.000000  0      -6787233.694      -1548117.631        279789.936
10 0 59277  29700.000000  0      -6811002.532      -1461620.318       -170409.698
10 0 59277  29760.000000  0      -6805201.444      -1368866.945       -619884.120
10 0 59277  29820.000000  0      -6769816.705      -1270511.022      -1066721.174
10 0 59277  29880.000000  0      -6704966.866      -1167229.148      -1509021.988
10 0 59277  29940.000000  0      -6610902.103      -1059716.891      -1944909.282
10 0 59277  30000.000000  0      -6488002.967       -948684.621      -2372535.539
10 0 59277  30060.000000  0      -6336778.497       -834853.299      -2790091.038
10 0 59277  30120.000000  0      -6157863.681       -718950.231      -3195811.670
10 0 59277  30180.000000  0      -5952016.322       -601704.799      -3587986.433
10 0 59277  30240.000000  0      -5720113.373       -483844.226      -3964964.637
10 0 59277  30300.000000  0      -5463146.696       -366089.418      -4325162.770
10 0 59277  30360.000000  0      -5182218.342       -249150.903      -4667070.974
10 0 59277  30420.000000  0      -4878535.387       -133724.888      -4989259.161
10 0 59277  30480.000000  0      -4553404.340        -20489.448      -5290382.760
10 0 59277  30540.000000  0      -4208225.061         89899.151      -5569188.012
10 0 59277  30600.000000  0      -3844484.389        196809.935      -5824516.766
10 0 59277  30660.000000  0      -3463749.438        299640.530      -6055310.870
10 0 59277  30720.000000  0      -3067660.648        397820.282      -6260616.074
10 0 59277  30780.000000  0      -2657924.642        490813.151      -6439585.532
10 0 59277  30840.000000  0      -2236306.811        578120.363      -6591482.953
10 0 59277  30900.000000  0      -1804623.650        659282.859      -6715685.226
10 0 59277  30960.000000  0      -1364735.002        733883.518      -6811684.561
10 0 59277  31020.000000  0       -918536.179        801549.154      -6879090.209
10 0 59277  31080.000000  0       -467949.989        861952.229      -6917629.722
10 0 59277  31140.000000  0        -14918.734        914812.324      -6927149.816
10 0 59277  31200.000000  0        438603.832        959897.328      -6907616.906
10 0 59277  31260.000000  0        890660.710        997024.389      -6859117.290
10 0 59277  31320.000000  0       1339299.956       1026060.634      -6781856.742
10 0 59277  31380.000000  0       1782582.838       1046923.616      -6676159.596
10 0 59277  31440.000000  0       2218591.934       1059581.473      -6542467.530
10 0 59277  31500.000000  0       2645439.283       1064052.861      -6381337.887
10 0 59277  31560.000000  0       3061274.370       1060406.597      -6193441.448
10 0 59277  31620.000000  0       3464291.894       1048761.026      -5979559.897
10 0 59277  31680.000000  0       3852739.496       1029283.144      -5740582.942
10 0 59277  31740.000000  0       4224925.332       1002187.452      -5477504.932
10 0 59277  31800.000000  0       4579225.426        967734.573      -5191421.121
10 0 59277  31860.000000  0       4914090.888        926229.636      -4883523.446
10 0 59277  31920.000000  0       5228054.781        878020.399      -4555095.871
10 0 59277  31980.000000  0       5519738.692        823495.131      -4207509.374
10 0 59277  32040.000000  0       5787859.005        763080.253      -3842216.536
10 0 59277  32100.000000  0       6031232.769        697237.783      -3460745.757
10 0 59277  32160.000000  0       6248783.203        626462.565      -3064695.145
10 0 59277  32220.000000  0       6439544.822        551279.329      -2655726.051
10 0 59277  32280.000000  0       6602668.111        472239.547      -2235556.232
10 0 59277  32340.000000  0       6737423.663        389918.109      -1805952.688
10 0 59277  32400.000000  0       6843205.733        304909.873      -1368724.244
10 0 59277  32460.000000  0       6919535.254        217826.090       -925713.937
10 0 59277  32520.000000  0       6966062.275        129290.732       -478791.207
10 0 59277  32580.000000  0       6982567.842         39936.762        -29843.964
10 0 59277  32640.000000  0       6968965.324        -49597.703        419229.503
10 0 59277  32700.000000  0       6925301.029       -138673.297        866528.770
10 0 59277  32760.000000  0       6851754.170       -226653.278       1310159.432
10 0 59277  32820.000000  0       6748636.322       -312907.404       1748241.357
10 0 59277  32880.000000  0       6616390.096       -396815.765       2178916.922
10 0 59277  32940.000000  0       6455587.207       -477772.578       2600359.074
10 0 59277  33000.000000  0       6266925.918       -555189.938       3010779.270
10 0 59277  33060.000000  0       6051227.839       -628501.400       3408435.209
10 0 59277  33120.000000  0       5809434.241       -697165.405       3791638.277
10 0 59277  33180.000000  0       5542601.954       -760668.635       4158760.875
10 0 59277  33240.000000  0       5251898.477       -818529.257       4508243.530
10 0 59277  33300.000000  0       4938596.625       -870299.898       4838601.490
10 0 59277  33360.000000  0       4604068.772       -915570.445       5148431.109
10 0 59277  33420.000000  0       4249780.553       -953970.554       5436415.760
10 0 59277  33480.000000  0       3877284.316       -985171.975       5701331.360
10 0 59277  33540.000000  0       3488212.138      -1008890.698       5942051.590
10 0 59277  33600.000000  0       3084268.464      -1024888.798       6157552.592
10 0 59277  33660.000000  0       2667222.520      -1032976.020       6346917.191
10 0 59277  33720.000000  0       2238900.519      -1033011.120       6509338.779
10 0 59277  33780.000000  0       1801177.520      -1024902.947       6644124.751
10 0 59277  33840.000000  0       1355969.073      -1008611.221       6750699.389
10 0 59277  33900.000000  0        905222.728       -984147.010       6828606.232
10 0 59277  33960.000000  0        450909.482       -951572.927       6877509.964
10 0 59277  34020.000000  0         -4984.892       -911003.066       6897197.844
10 0 59277  34080.000000  0       -460468.537       -862602.638       6887580.595
10 0 59277  34140.000000  0       -913552.225       -806587.343       6848692.898
10 0 59277  34200.000000  0      -1362258.105       -743222.422       6780693.345
10 0 59277  34260.000000  0      -1804628.368       -672821.416       6683863.859
10 0 59277  34320.000000  0      -2238733.822       -595744.689       6558608.692
10 0 59277  34380.000000  0      -2662682.401       -512397.652       6405452.939
10 0 59277  34440.000000  0      -3074627.569       -423228.703       6225040.545
10 0 59277  34500.000000  0      -3472776.553       -328726.943       6018131.792
10 0 59277  34560.000000  0      -3855398.393       -229419.647       5785600.311
10 0 59277  34620.000000  0      -4220831.759       -125869.450       5528429.551
10 0 59277  34680.000000  0      -4567492.453        -18671.338       5247708.749
10 0 59277  34740.000000  0      -4893880.593         91550.542       4944628.426
10 0 59277  34800.000000  0      -5198587.449        204146.309       4620475.444
10 0 59277  34860.000000  0      -5480301.906        318443.967       4276627.549
10 0 59277  34920.000000  0      -5737816.390        433753.155       3914547.495
10 0 59277  34980.000000  0      -5970032.378        549369.050       3535776.852
10 0 59277  35040.000000  0      -6175965.470        664576.404       3141929.389
10 0 59277  35100.000000  0      -6354749.913        778653.678       2734684.038
10 0 59277  35160.000000  0      -6505642.499        890877.232       2315777.541
10 0 59277  35220.000000  0      -6628025.918       1000525.547       1886996.859
10 0 59277  35280.000000  0      -6721411.543       1106883.475       1450171.273
10 0 59277  35340.000000  0      -6785441.532       1209246.487       1007164.244
10 0 59277  35400.000000  0      -6819890.271       1306924.888        559865.120
10 0 59277  35460.000000  0      -6824665.140       1399247.978        110180.694
10 0 59277  35520.000000  0      -6799806.581       1485568.088       -339973.287
10 0 59277  35580.000000  0      -6745487.516       1565264.499       -788680.616
10 0 59277  35640.000000  0      -6662012.104       1637747.216      -1234033.088
10 0 59277  35700.000000  0      -6549813.923       1702460.585      -1674138.849
10 0 59277  35760.000000  0      -6409453.526       1758886.783      -2107130.725
10 0 59277  35820.000000  0      -6241615.325       1806549.084      -2531174.413
10 0 59277  35880.000000  0      -6047103.859       1845014.864      -2944476.458
10 0 59277  35940.000000  0      -5826839.497       1873898.339      -3345291.951
99
